{
  "type": "FeatureCollection",
  "features": [
    {
      "type": "Feature",
      "properties": {
        "norad_id": 66654,
        "name": "JACK E",
        "group": "last-30-days",
        "lat": -68.61992752538151,
        "lon": -59.216812575306705,
        "alt_km": 594.2994777609902,
        "timestamp": "2025-12-19T08:58:48.083017+00:00",
        "meta_object_name": "JACK E",
        "meta_object_id": "2025-274E",
        "meta_epoch": "2025-12-18T20:25:04.095840",
        "meta_mean_motion": 14.92115116,
        "meta_eccentricity": 0.00119932,
        "meta_inclination": 97.74,
        "meta_ra_of_asc_node": 279.9401,
        "meta_arg_of_pericenter": 232.7773,
        "meta_mean_anomaly": 127.2352,
        "meta_ephemeris_type": 0,
        "meta_classification_type": "U",
        "meta_norad_cat_id": 66654,
        "meta_element_set_no": 999,
        "meta_rev_at_epoch": 331,
        "meta_bstar": 0.0001596937,
        "meta_mean_motion_dot": 1.569e-05,
        "meta_mean_motion_ddot": 0,
        "tle_line1": "1 66654U 25274E   25352.85074185  .00001569  00000+0  15969-3 0  9995",
        "tle_line2": "2 66654  97.7400 279.9401 0011993 232.7773 127.2352 14.92115116  3312"
      },
      "geometry": {
        "type": "Point",
        "coordinates": [
          -59.216812575306705,
          -68.61992752538151
        ]
      }
    },
    {
      "type": "Feature",
      "properties": {
        "norad_id": 66655,
        "name": "2025-274F",
        "group": "last-30-days",
        "lat": -82.22538585321027,
        "lon": 4.852067124882791,
        "alt_km": 601.6412835736382,
        "timestamp": "2025-12-19T08:58:48.083028+00:00",
        "meta_object_name": "2025-274F",
        "meta_object_id": "2025-274F",
        "meta_epoch": "2025-12-18T18:53:07.339200",
        "meta_mean_motion": 14.91174217,
        "meta_eccentricity": 0.00049938,
        "meta_inclination": 97.7329,
        "meta_ra_of_asc_node": 279.8662,
        "meta_arg_of_pericenter": 2.8245,
        "meta_mean_anomaly": 357.3001,
        "meta_ephemeris_type": 0,
        "meta_classification_type": "U",
        "meta_norad_cat_id": 66655,
        "meta_element_set_no": 999,
        "meta_rev_at_epoch": 330,
        "meta_bstar": -7.422034e-06,
        "meta_mean_motion_dot": -1.29e-06,
        "meta_mean_motion_ddot": 0,
        "tle_line1": "1 66655U 25274F   25352.78689050 -.00000129  00000+0 -74220-5 0  9991",
        "tle_line2": "2 66655  97.7329 279.8662 0004993   2.8245 357.3001 14.91174217  3305"
      },
      "geometry": {
        "type": "Point",
        "coordinates": [
          4.852067124882791,
          -82.22538585321027
        ]
      }
    },
    {
      "type": "Feature",
      "properties": {
        "norad_id": 66656,
        "name": "2025-274G",
        "group": "last-30-days",
        "lat": -54.06545780443106,
        "lon": -68.72426099654453,
        "alt_km": 595.1289961572538,
        "timestamp": "2025-12-19T08:58:48.083038+00:00",
        "meta_object_name": "2025-274G",
        "meta_object_id": "2025-274G",
        "meta_epoch": "2025-12-18T20:21:04.908672",
        "meta_mean_motion": 14.92309639,
        "meta_eccentricity": 0.00125395,
        "meta_inclination": 97.74,
        "meta_ra_of_asc_node": 279.943,
        "meta_arg_of_pericenter": 234.5061,
        "meta_mean_anomaly": 125.4989,
        "meta_ephemeris_type": 0,
        "meta_classification_type": "U",
        "meta_norad_cat_id": 66656,
        "meta_element_set_no": 999,
        "meta_rev_at_epoch": 331,
        "meta_bstar": 0.0001776725,
        "meta_mean_motion_dot": 1.761e-05,
        "meta_mean_motion_ddot": 0,
        "tle_line1": "1 66656U 25274G   25352.84797348  .00001761  00000+0  17767-3 0  9991",
        "tle_line2": "2 66656  97.7400 279.9430 0012539 234.5061 125.4989 14.92309639  3314"
      },
      "geometry": {
        "type": "Point",
        "coordinates": [
          -68.72426099654453,
          -54.06545780443106
        ]
      }
    },
    {
      "type": "Feature",
      "properties": {
        "norad_id": 66657,
        "name": "SPIRONE",
        "group": "last-30-days",
        "lat": -39.7981031282526,
        "lon": -73.0282039343692,
        "alt_km": 593.986148097877,
        "timestamp": "2025-12-19T08:58:48.083048+00:00",
        "meta_object_name": "SPIRONE",
        "meta_object_id": "2025-274H",
        "meta_epoch": "2025-12-18T20:17:15.327456",
        "meta_mean_motion": 14.92488768,
        "meta_eccentricity": 0.00107229,
        "meta_inclination": 97.7399,
        "meta_ra_of_asc_node": 279.9459,
        "meta_arg_of_pericenter": 252.9623,
        "meta_mean_anomaly": 107.0422,
        "meta_ephemeris_type": 0,
        "meta_classification_type": "U",
        "meta_norad_cat_id": 66657,
        "meta_element_set_no": 999,
        "meta_rev_at_epoch": 331,
        "meta_bstar": 0.00017540552,
        "meta_mean_motion_dot": 1.745e-05,
        "meta_mean_motion_ddot": 0,
        "tle_line1": "1 66657U 25274H   25352.84531629  .00001745  00000+0  17541-3 0  9992",
        "tle_line2": "2 66657  97.7399 279.9459 0010722 252.9623 107.0422 14.92488768  3312"
      },
      "geometry": {
        "type": "Point",
        "coordinates": [
          -73.0282039343692,
          -39.7981031282526
        ]
      }
    },
    {
      "type": "Feature",
      "properties": {
        "norad_id": 66658,
        "name": "2025-274J",
        "group": "last-30-days",
        "lat": -25.87825285964198,
        "lon": -75.74531495417992,
        "alt_km": 593.9272355643898,
        "timestamp": "2025-12-19T08:58:48.083058+00:00",
        "meta_object_name": "2025-274J",
        "meta_object_id": "2025-274J",
        "meta_epoch": "2025-12-18T20:13:33.445344",
        "meta_mean_motion": 14.92659104,
        "meta_eccentricity": 0.00112459,
        "meta_inclination": 97.7398,
        "meta_ra_of_asc_node": 279.9493,
        "meta_arg_of_pericenter": 256.1466,
        "meta_mean_anomaly": 103.8502,
        "meta_ephemeris_type": 0,
        "meta_classification_type": "U",
        "meta_norad_cat_id": 66658,
        "meta_element_set_no": 999,
        "meta_rev_at_epoch": 331,
        "meta_bstar": 0.00017520649,
        "meta_mean_motion_dot": 1.751e-05,
        "meta_mean_motion_ddot": 0,
        "tle_line1": "1 66658U 25274J   25352.84274821  .00001751  00000+0  17521-3 0  9996",
        "tle_line2": "2 66658  97.7398 279.9493 0011245 256.1466 103.8502 14.92659104  3319"
      },
      "geometry": {
        "type": "Point",
        "coordinates": [
          -75.74531495417992,
          -25.87825285964198
        ]
      }
    },
    {
      "type": "Feature",
      "properties": {
        "norad_id": 66659,
        "name": "JACK K",
        "group": "last-30-days",
        "lat": -10.908074618712307,
        "lon": -78.01909834627746,
        "alt_km": 593.8706131361469,
        "timestamp": "2025-12-19T08:58:48.083067+00:00",
        "meta_object_name": "JACK K",
        "meta_object_id": "2025-274K",
        "meta_epoch": "2025-12-18T16:56:33.329184",
        "meta_mean_motion": 14.92843404,
        "meta_eccentricity": 0.00119534,
        "meta_inclination": 97.74,
        "meta_ra_of_asc_node": 279.8218,
        "meta_arg_of_pericenter": 258.1182,
        "meta_mean_anomaly": 101.8697,
        "meta_ephemeris_type": 0,
        "meta_classification_type": "U",
        "meta_norad_cat_id": 66659,
        "meta_element_set_no": 999,
        "meta_rev_at_epoch": 329,
        "meta_bstar": 0.00018040546,
        "meta_mean_motion_dot": 1.813e-05,
        "meta_mean_motion_ddot": 0,
        "tle_line1": "1 66659U 25274K   25352.70594131  .00001813  00000+0  18041-3 0  9998",
        "tle_line2": "2 66659  97.7400 279.8218 0011953 258.1182 101.8697 14.92843404  3299"
      },
      "geometry": {
        "type": "Point",
        "coordinates": [
          -78.01909834627746,
          -10.908074618712307
        ]
      }
    },
    {
      "type": "Feature",
      "properties": {
        "norad_id": 66660,
        "name": "K-HERO",
        "group": "last-30-days",
        "lat": 1.2217816422037664,
        "lon": -79.68112268017518,
        "alt_km": 593.6943444613735,
        "timestamp": "2025-12-19T08:58:48.083077+00:00",
        "meta_object_name": "K-HERO",
        "meta_object_id": "2025-274L",
        "meta_epoch": "2025-12-18T18:29:52.806048",
        "meta_mean_motion": 14.92995215,
        "meta_eccentricity": 0.00125308,
        "meta_inclination": 97.7404,
        "meta_ra_of_asc_node": 279.8915,
        "meta_arg_of_pericenter": 258.5821,
        "meta_mean_anomaly": 101.3991,
        "meta_ephemeris_type": 0,
        "meta_classification_type": "U",
        "meta_norad_cat_id": 66660,
        "meta_element_set_no": 999,
        "meta_rev_at_epoch": 330,
        "meta_bstar": 0.00019949035,
        "meta_mean_motion_dot": 2.019e-05,
        "meta_mean_motion_ddot": 0,
        "tle_line1": "1 66660U 25274L   25352.77075007  .00002019  00000+0  19949-3 0  9990",
        "tle_line2": "2 66660  97.7404 279.8915 0012530 258.5821 101.3991 14.92995215  3307"
      },
      "geometry": {
        "type": "Point",
        "coordinates": [
          -79.68112268017518,
          1.2217816422037664
        ]
      }
    }
  ]
}